{"type": "FeatureCollection", "features": [ {"type": "Feature", "properties": {"norad_id": 66858, "name": "STARLINK-35118", "group": "last-30-days", "lat": 17.990537848603587, "lon": 94.5554977870153, "alt_km": 345.0511618959681, "timestamp": "2025-12-20T14:38:00.690130+00:00", "meta": {"OBJECT_NAME": "STARLINK-35118", "OBJECT_ID": "2025-281L", "EPOCH": "2025-12-20T06:00:02.999808", "MEAN_MOTION": 15.75426742, "ECCENTRICITY": 9.776e-05, "INCLINATION": 43.0011, "RA_OF_ASC_NODE": 76.3429, "ARG_OF_PERICENTER": 260.4646, "MEAN_ANOMALY": 244.9076, "EPHEMERIS_TYPE": 0, "CLASSIFICATION_TYPE": "U", "NORAD_CAT_ID": 66858, "ELEMENT_SET_NO": 999, "REV_AT_EPOCH": 239, "BSTAR": -0.012533883, "MEAN_MOTION_DOT": -0.01726844, "MEAN_MOTION_DDOT": 0}, "tle": {"line1": "1 66858U 25281L   25354.25003472 -.01726844  00000+0 -12534-1 0  9992", "line2": "2 66858  43.0011  76.3429 0000977 260.4646 244.9076 15.75426742  2395"}}, "geometry": {"type": "Point", "coordinates": [94.5554977870153, 17.990537848603587]}}, {"type": "Feature", "properties": {"norad_id": 66859, "name": "STARLINK-35646", "group": "last-30-days", "lat": 19.210302536892023, "lon": 96.11370449429356, "alt_km": 344.83126991487734, "timestamp": "2025-12-20T14:38:00.690140+00:00", "meta": {"OBJECT_NAME": "STARLINK-35646", "OBJECT_ID": "2025-281M", "EPOCH": "2025-12-20T06:00:02.999808", "MEAN_MOTION": 15.75421765, "ECCENTRICITY": 9.52e-05, "INCLINATION": 43.0009, "RA_OF_ASC_NODE": 76.3381, "ARG_OF_PERICENTER": 263.6601, "MEAN_ANOMALY": 243.6332, "EPHEMERIS_TYPE": 0, "CLASSIFICATION_TYPE": "U", "NORAD_CAT_ID": 66859, "ELEMENT_SET_NO": 999, "REV_AT_EPOCH": 260, "BSTAR": -0.012496762, "MEAN_MOTION_DOT": -0.01721986, "MEAN_MOTION_DDOT": 0}, "tle": {"line1": "1 66859U 25281M   25354.25003472 -.01721986  00000+0 -12497-1 0  9993", "line2": "2 66859  43.0009  76.3381 0000952 263.6601 243.6332 15.75421765  2604"}}, "geometry": {"type": "Point", "coordinates": [96.11370449429356, 19.210302536892023]}}, {"type": "Feature", "properties": {"norad_id": 66860, "name": "STARLINK-35987", "group": "last-30-days", "lat": 25.08296768062035, "lon": 104.28506898400839, "alt_km": 344.0991401645606, "timestamp": "2025-12-20T14:38:00.690150+00:00", "meta": {"OBJECT_NAME": "STARLINK-35987", "OBJECT_ID": "2025-281N", "EPOCH": "2025-12-20T06:00:02.999808", "MEAN_MOTION": 15.75420887, "ECCENTRICITY": 0.00011259, "INCLINATION": 43.0006, "RA_OF_ASC_NODE": 76.3144, "ARG_OF_PERICENTER": 261.4567, "MEAN_ANOMALY": 255.4204, "EPHEMERIS_TYPE": 0, "CLASSIFICATION_TYPE": "U", "NORAD_CAT_ID": 66860, "ELEMENT_SET_NO": 999, "REV_AT_EPOCH": 260, "BSTAR": -0.012475031, "MEAN_MOTION_DOT": -0.01719413, "MEAN_MOTION_DDOT": 0}, "tle": {"line1": "1 66860U 25281N   25354.25003472 -.01719413  00000+0 -12475-1 0  9993", "line2": "2 66860  43.0006  76.3144 0001125 261.4567 255.4204 15.75420887  2603"}}, "geometry": {"type": "Point", "coordinates": [104.28506898400839, 25.08296768062035]}}, {"type": "Feature", "properties": {"norad_id": 66861, "name": "STARLINK-35991", "group": "last-30-days", "lat": 21.610195906972507, "lon": 99.3041685944239, "alt_km": 344.53728467327073, "timestamp": "2025-12-20T14:38:00.690164+00:00", "meta": {"OBJECT_NAME": "STARLINK-35991", "OBJECT_ID": "2025-281P", "EPOCH": "2025-12-20T06:00:02.999808", "MEAN_MOTION": 15.75423532, "ECCENTRICITY": 0.00011432, "INCLINATION": 43.0007, "RA_OF_ASC_NODE": 76.3288, "ARG_OF_PERICENTER": 266.169, "MEAN_ANOMALY": 244.9594, "EPHEMERIS_TYPE": 0, "CLASSIFICATION_TYPE": "U", "NORAD_CAT_ID": 66861, "ELEMENT_SET_NO": 999, "REV_AT_EPOCH": 260, "BSTAR": -0.012520414, "MEAN_MOTION_DOT": -0.01725112, "MEAN_MOTION_DDOT": 0}, "tle": {"line1": "1 66861U 25281P   25354.25003472 -.01725112  00000+0 -12520-1 0  9998", "line2": "2 66861  43.0007  76.3288 0001143 266.1690 244.9594 15.75423532  2608"}}, "geometry": {"type": "Point", "coordinates": [99.3041685944239, 21.610195906972507]}}, {"type": "Feature", "properties": {"norad_id": 66862, "name": "STARLINK-35974", "group": "last-30-days", "lat": 20.41736549764785, "lon": 97.69597969369966, "alt_km": 344.6706282693722, "timestamp": "2025-12-20T14:38:00.690174+00:00", "meta": {"OBJECT_NAME": "STARLINK-35974", "OBJECT_ID": "2025-281Q", "EPOCH": "2025-12-20T06:00:02.999808", "MEAN_MOTION": 15.75421019, "ECCENTRICITY": 9.982e-05, "INCLINATION": 43.0009, "RA_OF_ASC_NODE": 76.3333, "ARG_OF_PERICENTER": 264.7299, "MEAN_ANOMALY": 244.4823, "EPHEMERIS_TYPE": 0, "CLASSIFICATION_TYPE": "U", "NORAD_CAT_ID": 66862, "ELEMENT_SET_NO": 999, "REV_AT_EPOCH": 250, "BSTAR": -0.01249523, "MEAN_MOTION_DOT": -0.01721783, "MEAN_MOTION_DDOT": 0}, "tle": {"line1": "1 66862U 25281Q   25354.25003472 -.01721783  00000+0 -12495-1 0  9990", "line2": "2 66862  43.0009  76.3333 0000998 264.7299 244.4823 15.75421019  2505"}}, "geometry": {"type": "Point", "coordinates": [97.69597969369966, 20.41736549764785]}}, {"type": "Feature", "properties": {"norad_id": 66863, "name": "STARLINK-36134", "group": "last-30-days", "lat": 22.786769784841574, "lon": 100.93777481597259, "alt_km": 344.2150949649222, "timestamp": "2025-12-20T14:38:00.690184+00:00", "meta": {"OBJECT_NAME": "STARLINK-36134", "OBJECT_ID": "2025-281R", "EPOCH": "2025-12-20T06:00:02.999808", "MEAN_MOTION": 15.7542703, "ECCENTRICITY": 0.00011344, "INCLINATION": 43.0007, "RA_OF_ASC_NODE": 76.3239, "ARG_OF_PERICENTER": 275.5727, "MEAN_ANOMALY": 237.4701, "EPHEMERIS_TYPE": 0, "CLASSIFICATION_TYPE": "U", "NORAD_CAT_ID": 66863, "ELEMENT_SET_NO": 999, "REV_AT_EPOCH": 260, "BSTAR": -0.012547449, "MEAN_MOTION_DOT": -0.01728621, "MEAN_MOTION_DDOT": 0}, "tle": {"line1": "1 66863U 25281R   25354.25003472 -.01728621  00000+0 -12547-1 0  9997", "line2": "2 66863  43.0007  76.3239 0001134 275.5727 237.4701 15.75427030  2605"}}, "geometry": {"type": "Point", "coordinates": [100.93777481597259, 22.786769784841574]}}, {"type": "Feature", "properties": {"norad_id": 66864, "name": "STARLINK-36070", "group": "last-30-days", "lat": 23.941865911953208, "lon": 102.5936714843006, "alt_km": 344.09812603802675, "timestamp": "2025-12-20T14:38:00.690193+00:00", "meta": {"OBJECT_NAME": "STARLINK-36070", "OBJECT_ID": "2025-281S", "EPOCH": "2025-12-20T06:00:02.999808", "MEAN_MOTION": 15.75431675, "ECCENTRICITY": 8.379e-05, "INCLINATION": 43.0008, "RA_OF_ASC_NODE": 76.3196, "ARG_OF_PERICENTER": 266.7007, "MEAN_ANOMALY": 248.2555, "EPHEMERIS_TYPE": 0, "CLASSIFICATION_TYPE": "U", "NORAD_CAT_ID": 66864, "ELEMENT_SET_NO": 999, "REV_AT_EPOCH": 263, "BSTAR": -0.012603372, "MEAN_MOTION_DOT": -0.01735502, "MEAN_MOTION_DDOT": 0}, "tle": {"line1": "1 66864U 25281S   25354.25003472 -.01735502  00000+0 -12603-1 0  9997", "line2": "2 66864  43.0008  76.3196 0000837 266.7007 248.2555 15.75431675  2631"}}, "geometry": {"type": "Point", "coordinates": [102.5936714843006, 23.941865911953208]}}, {"type": "Feature", "properties": {"norad_id": 66865, "name": "STARLINK-36117", "group": "last-30-days", "lat": 26.20439600464966, "lon": 106.00840464821482, "alt_km": 343.96859944084645, "timestamp": "2025-12-20T14:38:00.690203+00:00", "meta": {"OBJECT_NAME": "STARLINK-36117", "OBJECT_ID": "2025-281T", "EPOCH": "2025-12-20T06:00:02.999808", "MEAN_MOTION": 15.75421252, "ECCENTRICITY": 0.00011453, "INCLINATION": 43.0008, "RA_OF_ASC_NODE": 76.31, "ARG_OF_PERICENTER": 259.9991, "MEAN_ANOMALY": 258.796, "EPHEMERIS_TYPE": 0, "CLASSIFICATION_TYPE": "U", "NORAD_CAT_ID": 66865, "ELEMENT_SET_NO": 999, "REV_AT_EPOCH": 260, "BSTAR": -0.012482808, "MEAN_MOTION_DOT": -0.01720396, "MEAN_MOTION_DDOT": 0}, "tle": {"line1": "1 66865U 25281T   25354.25003472 -.01720396  00000+0 -12483-1 0  9999", "line2": "2 66865  43.0008  76.3100 0001145 259.9991 258.7960 15.75421252  2609"}}, "geometry": {"type": "Point", "coordinates": [106.00840464821482, 26.20439600464966]}}, {"type": "Feature", "properties": {"norad_id": 66866, "name": "STARLINK-36126", "group": "last-30-days", "lat": 27.304116215198306, "lon": 107.76324534397156, "alt_km": 343.747752245602, "timestamp": "2025-12-20T14:38:00.690213+00:00", "meta": {"OBJECT_NAME": "STARLINK-36126", "OBJECT_ID": "2025-281U", "EPOCH": "2025-12-20T06:00:02.999808", "MEAN_MOTION": 15.75425149, "ECCENTRICITY": 9.314e-05, "INCLINATION": 43.0009, "RA_OF_ASC_NODE": 76.3048, "ARG_OF_PERICENTER": 259.0908, "MEAN_ANOMALY": 261.6224, "EPHEMERIS_TYPE": 0, "CLASSIFICATION_TYPE": "U", "NORAD_CAT_ID": 66866, "ELEMENT_SET_NO": 999, "REV_AT_EPOCH": 263, "BSTAR": -0.012537823, "MEAN_MOTION_DOT": -0.01727182, "MEAN_MOTION_DDOT": 0}, "tle": {"line1": "1 66866U 25281U   25354.25003472 -.01727182  00000+0 -12538-1 0  9991", "line2": "2 66866  43.0009  76.3048 0000931 259.0908 261.6224 15.75425149  2631"}}, "geometry": {"type": "Point", "coordinates": [107.76324534397156, 27.304116215198306]}}, {"type": "Feature", "properties": {"norad_id": 66867, "name": "STARLINK-36101", "group": "last-30-days", "lat": 28.383345362010484, "lon": 109.55655538285262, "alt_km": 343.38146045282156, "timestamp": "2025-12-20T14:38:00.690223+00:00", "meta": {"OBJECT_NAME": "STARLINK-36101", "OBJECT_ID": "2025-281V", "EPOCH": "2025-12-20T06:00:02.999808", "MEAN_MOTION": 15.75426861, "ECCENTRICITY": 9.116e-05, "INCLINATION": 43.0009, "RA_OF_ASC_NODE": 76.2997, "ARG_OF_PERICENTER": 276.5855, "MEAN_ANOMALY": 246.0446, "EPHEMERIS_TYPE": 0, "CLASSIFICATION_TYPE": "U", "NORAD_CAT_ID": 66867, "ELEMENT_SET_NO": 999, "REV_AT_EPOCH": 244, "BSTAR": -0.012571591, "MEAN_MOTION_DOT": -0.01731377, "MEAN_MOTION_DDOT": 0}, "tle": {"line1": "1 66867U 25281V   25354.25003472 -.01731377  00000+0 -12572-1 0  9991", "line2": "2 66867  43.0009  76.2997 0000911 276.5855 246.0446 15.75426861  2441"}}, "geometry": {"type": "Point", "coordinates": [109.55655538285262, 28.383345362010484]}}]}